[{"OBJECT_NAME":"PROTOMETHEE","OBJECT_ID":"2023-174BT","EPOCH":"2026-03-09T23:28:08.029344","MEAN_MOTION":15.30202663,"ECCENTRICITY":0.00088339,"INCLINATION":97.3826,"RA_OF_ASC_NODE":147.9552,"ARG_OF_PERICENTER":148.5993,"MEAN_ANOMALY":211.5776,"EPHEMERIS_TYPE":0,"CLASSIFICATION_TYPE":"U","NORAD_CAT_ID":58321,"ELEMENT_SET_NO":999,"REV_AT_EPOCH":12979,"BSTAR":0.00015715731,"MEAN_MOTION_DOT":4.52e-5,"MEAN_MOTION_DDOT":0},{"OBJECT_NAME":"STARLINK-33873","OBJECT_ID":"2025-083X","EPOCH":"2026-03-09T05:24:53.030592","MEAN_MOTION":15.27597423,"ECCENTRICITY":0.00022042,"INCLINATION":43.0043,"RA_OF_ASC_NODE":8.0199,"ARG_OF_PERICENTER":269.7434,"MEAN_ANOMALY":90.3165,"EPHEMERIS_TYPE":0,"CLASSIFICATION_TYPE":"U","NORAD_CAT_ID":63655,"ELEMENT_SET_NO":999,"REV_AT_EPOCH":5002,"BSTAR":0.0007984622,"MEAN_MOTION_DOT":0.00021787,"MEAN_MOTION_DDOT":0}]
